[{"OBJECT_NAME":"STARLINK-5769","OBJECT_ID":"2023-020S","EPOCH":"2026-03-09T03:37:17.065344","MEAN_MOTION":15.02534687,"ECCENTRICITY":0.00018039,"INCLINATION":43.0038,"RA_OF_ASC_NODE":355.0025,"ARG_OF_PERICENTER":269.5045,"MEAN_ANOMALY":90.559,"EPHEMERIS_TYPE":0,"CLASSIFICATION_TYPE":"U","NORAD_CAT_ID":55585,"ELEMENT_SET_NO":999,"REV_AT_EPOCH":16898,"BSTAR":-3.439795e-6,"MEAN_MOTION_DOT":-2.5e-6,"MEAN_MOTION_DDOT":0},{"OBJECT_NAME":"CZ-6A DEB","OBJECT_ID":"2022-151VS","EPOCH":"2026-03-09T04:51:15.060960","MEAN_MOTION":14.9137966,"ECCENTRICITY":0.00559122,"INCLINATION":98.6335,"RA_OF_ASC_NODE":146.9052,"ARG_OF_PERICENTER":180.6585,"MEAN_ANOMALY":179.4567,"EPHEMERIS_TYPE":0,"CLASSIFICATION_TYPE":"U","NORAD_CAT_ID":55201,"ELEMENT_SET_NO":999,"REV_AT_EPOCH":17149,"BSTAR":0.0042126159,"MEAN_MOTION_DOT":0.00043496,"MEAN_MOTION_DDOT":0}]
